{"type": "FeatureCollection", "features": [ {"type": "Feature", "properties": {"norad_id": 34058, "name": "COSMOS 2251 DEB", "group": "cosmos-2251-debris", "lat": 55.041817729170205, "lon": -154.38011795467665, "alt_km": 1169.1722928005365, "timestamp": "2025-12-10T18:57:00.458719+00:00", "meta": {"OBJECT_NAME": "COSMOS 2251 DEB", "OBJECT_ID": "1993-036JV", "EPOCH": "2025-12-09T23:55:36.748704", "MEAN_MOTION": 13.56069443, "ECCENTRICITY": 0.03780679, "INCLINATION": 73.9317, "RA_OF_ASC_NODE": 182.5584, "ARG_OF_PERICENTER": 178.3182, "MEAN_ANOMALY": 336.0371, "EPHEMERIS_TYPE": 0, "CLASSIFICATION_TYPE": "U", "NORAD_CAT_ID": 34058, "ELEMENT_SET_NO": 999, "REV_AT_EPOCH": 83105, "BSTAR": 0.0008560763, "MEAN_MOTION_DOT": 9.29e-06, "MEAN_MOTION_DDOT": 0}, "tle": {"line1": "1 34058U 93036JV  25343.99695311  .00000929  00000+0  85608-3 0  9990", "line2": "2 34058  73.9317 182.5584 0378067 178.3182 336.0371 13.56069443831057"}}, "geometry": {"type": "Point", "coordinates": [-154.38011795467665, 55.041817729170205]}}, {"type": "Feature", "properties": {"norad_id": 34059, "name": "COSMOS 2251 DEB", "group": "cosmos-2251-debris", "lat": -34.620125440076826, "lon": 178.55914295253046, "alt_km": 714.6536094532457, "timestamp": "2025-12-10T18:57:00.458729+00:00", "meta": {"OBJECT_NAME": "COSMOS 2251 DEB", "OBJECT_ID": "1993-036JW", "EPOCH": "2025-12-10T08:22:37.150176", "MEAN_MOTION": 14.52924478, "ECCENTRICITY": 0.0018689, "INCLINATION": 74.0378, "RA_OF_ASC_NODE": 190.7864, "ARG_OF_PERICENTER": 268.2831, "MEAN_ANOMALY": 272.0556, "EPHEMERIS_TYPE": 0, "CLASSIFICATION_TYPE": "U", "NORAD_CAT_ID": 34059, "ELEMENT_SET_NO": 999, "REV_AT_EPOCH": 88424, "BSTAR": 0.0010524, "MEAN_MOTION_DOT": 4.32e-05, "MEAN_MOTION_DDOT": 0}, "tle": {"line1": "1 34059U 93036JW  25344.34904109  .00004320  00000+0  10524-2 0  9992", "line2": "2 34059  74.0378 190.7864 0018689 268.2831 272.0556 14.52924478884248"}}, "geometry": {"type": "Point", "coordinates": [178.55914295253046, -34.620125440076826]}}, {"type": "Feature", "properties": {"norad_id": 34061, "name": "COSMOS 2251 DEB", "group": "cosmos-2251-debris", "lat": 37.28074081013477, "lon": -80.42263908673908, "alt_km": 745.8838202540273, "timestamp": "2025-12-10T18:57:00.458739+00:00", "meta": {"OBJECT_NAME": "COSMOS 2251 DEB", "OBJECT_ID": "1993-036JY", "EPOCH": "2025-12-10T06:08:34.252800", "MEAN_MOTION": 14.40349035, "ECCENTRICITY": 0.0020473, "INCLINATION": 74.04, "RA_OF_ASC_NODE": 267.9802, "ARG_OF_PERICENTER": 345.3006, "MEAN_ANOMALY": 167.7172, "EPHEMERIS_TYPE": 0, "CLASSIFICATION_TYPE": "U", "NORAD_CAT_ID": 34061, "ELEMENT_SET_NO": 999, "REV_AT_EPOCH": 88144, "BSTAR": 0.00058732, "MEAN_MOTION_DOT": 1.841e-05, "MEAN_MOTION_DDOT": 0}, "tle": {"line1": "1 34061U 93036JY  25344.25595200  .00001841  00000+0  58732-3 0  9992", "line2": "2 34061  74.0400 267.9802 0020473 345.3006 167.7172 14.40349035881441"}}, "geometry": {"type": "Point", "coordinates": [-80.42263908673908, 37.28074081013477]}}, {"type": "Feature", "properties": {"norad_id": 34062, "name": "COSMOS 2251 DEB", "group": "cosmos-2251-debris", "lat": -65.69500159560023, "lon": 1.2309544713291607, "alt_km": 595.1820785843183, "timestamp": "2025-12-10T18:57:00.458749+00:00", "meta": {"OBJECT_NAME": "COSMOS 2251 DEB", "OBJECT_ID": "1993-036JZ", "EPOCH": "2025-12-10T09:47:47.394816", "MEAN_MOTION": 14.78506954, "ECCENTRICITY": 0.00751, "INCLINATION": 74.0278, "RA_OF_ASC_NODE": 142.6209, "ARG_OF_PERICENTER": 222.1528, "MEAN_ANOMALY": 159.596, "EPHEMERIS_TYPE": 0, "CLASSIFICATION_TYPE": "U", "NORAD_CAT_ID": 34062, "ELEMENT_SET_NO": 999, "REV_AT_EPOCH": 88561, "BSTAR": 0.0043211, "MEAN_MOTION_DOT": 0.00033209, "MEAN_MOTION_DDOT": 0}, "tle": {"line1": "1 34062U 93036JZ  25344.40818744  .00033209  00000+0  43211-2 0  9999", "line2": "2 34062  74.0278 142.6209 0075100 222.1528 159.5960 14.78506954885616"}}, "geometry": {"type": "Point", "coordinates": [1.2309544713291607, -65.69500159560023]}}, {"type": "Feature", "properties": {"norad_id": 34064, "name": "COSMOS 2251 DEB", "group": "cosmos-2251-debris", "lat": -1.3213770695926987, "lon": -85.8921812652412, "alt_km": 738.6335040534987, "timestamp": "2025-12-10T18:57:00.458760+00:00", "meta": {"OBJECT_NAME": "COSMOS 2251 DEB", "OBJECT_ID": "1993-036KB", "EPOCH": "2025-12-10T06:23:15.208800", "MEAN_MOTION": 14.42323995, "ECCENTRICITY": 0.0022034, "INCLINATION": 74.0333, "RA_OF_ASC_NODE": 275.4568, "ARG_OF_PERICENTER": 342.2172, "MEAN_ANOMALY": 179.65, "EPHEMERIS_TYPE": 0, "CLASSIFICATION_TYPE": "U", "NORAD_CAT_ID": 34064, "ELEMENT_SET_NO": 999, "REV_AT_EPOCH": 88106, "BSTAR": 0.00088417, "MEAN_MOTION_DOT": 2.903e-05, "MEAN_MOTION_DDOT": 0}, "tle": {"line1": "1 34064U 93036KB  25344.26614825  .00002903  00000+0  88417-3 0  9994", "line2": "2 34064  74.0333 275.4568 0022034 342.2172 179.6500 14.42323995881061"}}, "geometry": {"type": "Point", "coordinates": [-85.8921812652412, -1.3213770695926987]}}, {"type": "Feature", "properties": {"norad_id": 34065, "name": "COSMOS 2251 DEB", "group": "cosmos-2251-debris", "lat": 39.96317674616889, "lon": -84.4074759705526, "alt_km": 752.8642753682725, "timestamp": "2025-12-10T18:57:00.458770+00:00", "meta": {"OBJECT_NAME": "COSMOS 2251 DEB", "OBJECT_ID": "1993-036KC", "EPOCH": "2025-12-10T06:07:15.765312", "MEAN_MOTION": 14.38058452, "ECCENTRICITY": 0.0016265, "INCLINATION": 74.0359, "RA_OF_ASC_NODE": 262.6972, "ARG_OF_PERICENTER": 0.7356, "MEAN_ANOMALY": 154.9078, "EPHEMERIS_TYPE": 0, "CLASSIFICATION_TYPE": "U", "NORAD_CAT_ID": 34065, "ELEMENT_SET_NO": 999, "REV_AT_EPOCH": 88169, "BSTAR": 0.00028724, "MEAN_MOTION_DOT": 8.45e-06, "MEAN_MOTION_DDOT": 0}, "tle": {"line1": "1 34065U 93036KC  25344.25504358  .00000845  00000+0  28724-3 0  9991", "line2": "2 34065  74.0359 262.6972 0016265   0.7356 154.9078 14.38058452881699"}}, "geometry": {"type": "Point", "coordinates": [-84.4074759705526, 39.96317674616889]}}, {"type": "Feature", "properties": {"norad_id": 34070, "name": "COSMOS 2251 DEB", "group": "cosmos-2251-debris", "lat": 12.333269091332754, "lon": 123.69371069314208, "alt_km": 649.7370125144853, "timestamp": "2025-12-10T18:57:00.458780+00:00", "meta": {"OBJECT_NAME": "COSMOS 2251 DEB", "OBJECT_ID": "1993-036KH", "EPOCH": "2025-12-10T09:16:50.455776", "MEAN_MOTION": 14.76882805, "ECCENTRICITY": 0.0018856, "INCLINATION": 74.0007, "RA_OF_ASC_NODE": 120.888, "ARG_OF_PERICENTER": 236.5308, "MEAN_ANOMALY": 155.0528, "EPHEMERIS_TYPE": 0, "CLASSIFICATION_TYPE": "U", "NORAD_CAT_ID": 34070, "ELEMENT_SET_NO": 999, "REV_AT_EPOCH": 88576, "BSTAR": 0.0041757, "MEAN_MOTION_DOT": 0.00029537, "MEAN_MOTION_DDOT": 0}, "tle": {"line1": "1 34070U 93036KH  25344.38669509  .00029537  00000+0  41757-2 0  9990", "line2": "2 34070  74.0007 120.8880 0018856 236.5308 155.0528 14.76882805885765"}}, "geometry": {"type": "Point", "coordinates": [123.69371069314208, 12.333269091332754]}}, {"type": "Feature", "properties": {"norad_id": 34114, "name": "COSMOS 2251 DEB", "group": "cosmos-2251-debris", "lat": 4.995241148259125, "lon": 48.95750807313801, "alt_km": 680.4242955716982, "timestamp": "2025-12-10T18:57:00.458791+00:00", "meta": {"OBJECT_NAME": "COSMOS 2251 DEB", "OBJECT_ID": "1993-036KK", "EPOCH": "2025-12-10T07:44:12.685056", "MEAN_MOTION": 14.56324745, "ECCENTRICITY": 0.004736, "INCLINATION": 74.0584, "RA_OF_ASC_NODE": 48.4107, "ARG_OF_PERICENTER": 44.1143, "MEAN_ANOMALY": 33.0003, "EPHEMERIS_TYPE": 0, "CLASSIFICATION_TYPE": "U", "NORAD_CAT_ID": 34114, "ELEMENT_SET_NO": 999, "REV_AT_EPOCH": 87766, "BSTAR": 0.0025029, "MEAN_MOTION_DOT": 0.0001125, "MEAN_MOTION_DDOT": 0}, "tle": {"line1": "1 34114U 93036KK  25344.32236904  .00011250  00000+0  25029-2 0  9999", "line2": "2 34114  74.0584  48.4107 0047360  44.1143  33.0003 14.56324745877668"}}, "geometry": {"type": "Point", "coordinates": [48.95750807313801, 4.995241148259125]}}, {"type": "Feature", "properties": {"norad_id": 34115, "name": "COSMOS 2251 DEB", "group": "cosmos-2251-debris", "lat": -41.8327116938536, "lon": -129.0896802044331, "alt_km": 645.3595163165446, "timestamp": "2025-12-10T18:57:00.458801+00:00", "meta": {"OBJECT_NAME": "COSMOS 2251 DEB", "OBJECT_ID": "1993-036KL", "EPOCH": "2025-12-10T02:55:08.768064", "MEAN_MOTION": 14.79420773, "ECCENTRICITY": 0.00284434, "INCLINATION": 74.0062, "RA_OF_ASC_NODE": 247.1035, "ARG_OF_PERICENTER": 71.434, "MEAN_ANOMALY": 288.9922, "EPHEMERIS_TYPE": 0, "CLASSIFICATION_TYPE": "U", "NORAD_CAT_ID": 34115, "ELEMENT_SET_NO": 999, "REV_AT_EPOCH": 89373, "BSTAR": 0.0014799312, "MEAN_MOTION_DOT": 0.00011104, "MEAN_MOTION_DDOT": 0}, "tle": {"line1": "1 34115U 93036KL  25344.12162926  .00011104  00000+0  14799-2 0  9990", "line2": "2 34115  74.0062 247.1035 0028443  71.4340 288.9922 14.79420773893731"}}, "geometry": {"type": "Point", "coordinates": [-129.0896802044331, -41.8327116938536]}}, {"type": "Feature", "properties": {"norad_id": 34116, "name": "COSMOS 2251 DEB", "group": "cosmos-2251-debris", "lat": 67.78827250635875, "lon": -38.03956182880834, "alt_km": 716.9488533821377, "timestamp": "2025-12-10T18:57:00.458811+00:00", "meta": {"OBJECT_NAME": "COSMOS 2251 DEB", "OBJECT_ID": "1993-036KM", "EPOCH": "2025-12-10T07:42:42.162048", "MEAN_MOTION": 14.52952253, "ECCENTRICITY": 0.00121, "INCLINATION": 74.0401, "RA_OF_ASC_NODE": 187.338, "ARG_OF_PERICENTER": 263.4064, "MEAN_ANOMALY": 273.9293, "EPHEMERIS_TYPE": 0, "CLASSIFICATION_TYPE": "U", "NORAD_CAT_ID": 34116, "ELEMENT_SET_NO": 999, "REV_AT_EPOCH": 88451, "BSTAR": 0.00094692, "MEAN_MOTION_DOT": 3.881e-05, "MEAN_MOTION_DDOT": 0}, "tle": {"line1": "1 34116U 93036KM  25344.32132132  .00003881  00000+0  94692-3 0  9993", "line2": "2 34116  74.0401 187.3380 0012100 263.4064 273.9293 14.52952253884511"}}, "geometry": {"type": "Point", "coordinates": [-38.03956182880834, 67.78827250635875]}}]}